[{"OBJECT_NAME":"VSP ROSE","OBJECT_ID":"2024-043AC","EPOCH":"2026-03-09T21:48:06.922944","MEAN_MOTION":15.27746075,"ECCENTRICITY":0.00099339,"INCLINATION":97.5443,"RA_OF_ASC_NODE":203.927,"ARG_OF_PERICENTER":232.2702,"MEAN_ANOMALY":127.7637,"EPHEMERIS_TYPE":0,"CLASSIFICATION_TYPE":"U","NORAD_CAT_ID":59124,"ELEMENT_SET_NO":999,"REV_AT_EPOCH":11182,"BSTAR":0.00025731354,"MEAN_MOTION_DOT":6.907e-5,"MEAN_MOTION_DDOT":0},{"OBJECT_NAME":"STARLINK-33659","OBJECT_ID":"2025-069N","EPOCH":"2026-03-09T12:20:13.378272","MEAN_MOTION":15.30219919,"ECCENTRICITY":0.00012439,"INCLINATION":53.159,"RA_OF_ASC_NODE":143.5893,"ARG_OF_PERICENTER":47.2398,"MEAN_ANOMALY":312.8707,"EPHEMERIS_TYPE":0,"CLASSIFICATION_TYPE":"U","NORAD_CAT_ID":63445,"ELEMENT_SET_NO":999,"REV_AT_EPOCH":5332,"BSTAR":0.00072406312,"MEAN_MOTION_DOT":0.0002116,"MEAN_MOTION_DDOT":0}]
